STARLINK-11414 [DTC]    
1 61948U 24209K   26186.37256651  .00189302  00000+0  15307-2 0  9993
2 61948  53.1566 150.9548 0001130  89.2304 270.8843 15.69730819 95206
STARLINK-11424 [DTC]    
1 61949U 24209L   26186.50482224  .00120613  00000+0  98730-3 0  9998
2 61949  53.1565 150.3615 0001045  74.3900 285.7233 15.69677869 95187
STARLINK-11423 [DTC]    
1 61950U 24209M   26186.25994643  .00111569  00000+0  91410-3 0  9993
2 61950  53.1572 151.6859 0001338  91.6337 268.4834 15.69691966 95181
STARLINK-11395 [DTC]    
1 61951U 24209N   26186.38237973  .00146312  00000+0  11915-2 0  9999
2 61951  53.1569 151.0198 0001047  71.5217 288.5915 15.69707717 95162
STARLINK-32572          
1 61952U 24209P   26186.34707987  .00046346  00000+0  15676-2 0  9997
2 61952  53.1657 315.6997 0000635  72.2536 287.8534 15.30191663 92914
STARLINK-32585          
1 61953U 24209Q   26186.58336806 -.01282552  00000+0 -30179-1 0  9990
2 61953  53.1586 307.6685 0001096  65.8632  59.9549 15.44452864  5802
STARLINK-32574          
1 61954U 24209R   26186.58336806 -.01476693  00000+0 -37690-1 0  9997
2 61954  53.1677 307.6703 0001007  69.7332  53.9188 15.41995720  5899
STARLINK-32583          
1 61955U 24209S   26186.58336806 -.00059994  00000+0 -18264-2 0  9995
2 61955  53.1599 307.5125 0000942  80.0912 122.7734 15.33565915  5901
STARLINK-32273          
1 61956U 24209T   26186.35233985  .00034015  00000+0  11545-2 0  9995
2 61956  53.1607 315.7243 0001419  81.7988 278.3174 15.30224720 92911
STARLINK-32359          
1 61957U 24209U   26186.58336806  .00015949  00000+0  49560-3 0  9991
2 61957  53.1604 307.4527 0000412  80.7761 153.1010 15.33523881  5929
STARLINK-32566          
1 61958U 24209V   26186.34901879  .00024030  00000+0  72012-3 0  9993
2 61958  53.1602 308.5893 0000847  79.1098 281.0000 15.34397413 93033
STARLINK-32499          
1 61959U 24210A   26186.18269486  .00026015  00000+0  95041-3 0  9991
2 61959  42.9985 235.8889 0000599 279.2273  80.8511 15.27619760 92892
STARLINK-32372          
1 61960U 24210B   26186.19040658  .00033460  00000+0  12188-2 0  9994
2 61960  43.0002 235.9448 0001410 263.0950  96.9741 15.27609823 92751
STARLINK-32452          
1 61961U 24210C   26186.46191277  .00021359  00000+0  78282-3 0  9991
2 61961  42.9984 227.6218 0001538 270.1994  89.8681 15.27605911 93007
STARLINK-32458          
1 61962U 24210D   26186.17563731  .00028668  00000+0  10460-2 0  9991
2 61962  42.9986 221.9846 0001873 275.9166  84.1472 15.27619115 93041
STARLINK-32487          
1 61963U 24210E   26186.21995925  .00032052  00000+0  11679-2 0  9996
2 61963  42.9986 236.1606 0001472 259.9166 100.1520 15.27617840 92888
STARLINK-32513          
1 61964U 24210F   26186.09868596  .00034596  00000+0  12588-2 0  9991
2 61964  42.9983 222.2724 0001010 262.7158  97.3579 15.27632069 93033
STARLINK-32514          
1 61965U 24210G   26186.46577390  .00017907  00000+0  65774-3 0  9995
2 61965  42.9981 227.6511 0001681 273.0934  86.9725 15.27625790 93003
STARLINK-32498          
1 61966U 24210H   26186.14993909  .00021878  00000+0  80150-3 0  9996
2 61966  43.0008 221.7908 0001337 273.4056  86.6643 15.27608327 93045
STARLINK-32518          
1 61967U 24210J   26186.49143213  .00017806  00000+0  65454-3 0  9996
2 61967  43.0039 227.6493 0001342 263.0583  97.0116 15.27604605 92876
STARLINK-32471          
1 61968U 24210K   26186.45548681  .00036329  00000+0  13222-2 0  9997
2 61968  42.9987 227.5750 0001696 276.2798  83.7861 15.27604147 93015
STARLINK-32450          
1 61969U 24210L   26186.19779965  .00036145  00000+0  13149-2 0  9994
2 61969  42.9985 229.0789 0001720 262.7514  97.3142 15.27621034 92833
STARLINK-32613          
1 61970U 24210M   26186.17256159  .00022810  00000+0  83515-3 0  9998
2 61970  42.9978 236.6709 0000810 258.0983 101.9778 15.27607667 92888
STARLINK-32610          
1 61971U 24210N   26186.49177955  .00024558  00000+0  89804-3 0  9998
2 61971  43.0001 234.7622 0001539 267.7908  92.2767 15.27613567 92936
STARLINK-32612          
1 61972U 24210P   26186.49564029  .00017260  00000+0  63482-3 0  9997
2 61972  42.9964 234.7910 0000542  38.9989 321.0902 15.27603897 92897
STARLINK-32601          
1 61973U 24210Q   26186.51347892  .00017497  00000+0  64331-3 0  9994
2 61973  43.0013 234.0682 0001336 270.1505  89.9193 15.27608197 92902
STARLINK-32593          
1 61974U 24210R   26185.85206000  .00026503  00000+0  96810-3 0  9991
2 61974  42.9982 238.5635 0000869 275.2320  84.8432 15.27616104 92798
STARLINK-32586          
1 61975U 24210S   26186.15071539  .00032777  00000+0  11938-2 0  9990
2 61975  42.9984 236.5020 0001455 275.6646  84.4039 15.27622854 92848
STARLINK-32611          
1 61976U 24210T   26186.21224732  .00022705  00000+0  83131-3 0  9998
2 61976  42.9984 236.1045 0001687 268.7117  91.3541 15.27609864 92857
STARLINK-32607          
1 61977U 24210U   26186.48792878  .00017357  00000+0  63889-3 0  9994
2 61977  42.9978 234.7321 0001290 275.2984  84.7721 15.27574158 92939
STARLINK-32606          
1 61978U 24210V   26186.19682939  .00032115  00000+0  11703-2 0  9995
2 61978  43.0012 235.9911 0001609 255.5990 104.4683 15.27612865 92857
STARLINK-32578          
1 61979U 24210W   26186.19811060  .00022850  00000+0  83626-3 0  9994
2 61979  43.0007 236.0025 0001846 267.8741  92.1900 15.27621032 92898
STARLINK-32517          
1 61980U 24210X   26186.58336806  .00069678  00000+0  25227-2 0  9990
2 61980  42.9989 234.4001 0001704 281.5257 159.1286 15.27515058  5863
STARLINK-32522          
1 61981U 24210Y   26186.20840624  .00003843  00000+0  14906-3 0  9993
2 61981  43.0005 236.0806 0002731 292.3666  67.6896 15.27588933 92858
STARLINK-32560          
1 61982U 24210Z   26186.19426757  .00035752  00000+0  13021-2 0  9999
2 61982  43.0012 235.9712 0001653 258.7635 101.3031 15.27587043 92853
OPTUS-X (ADS-01)        
1 62006U 24212A   26186.60067509 -.00000130  00000+0  00000+0 0  9994
2 62006   0.0130 313.1848 0002399 191.1612 151.9033  1.00271539  5940
STARLINK-11433 [DTC]    
1 62008U 24213A   26186.58072785  .00201152  00000+0  16242-2 0  9990
2 62008  53.1573 179.9271 0001220  58.4962 301.6175 15.69725966 93435
STARLINK-11262 [DTC]    
1 62009U 24213B   26186.49263997  .00165246  00000+0  13432-2 0  9999
2 62009  53.1568 180.8194 0002997  25.6332 334.4834 15.69681866 93418
STARLINK-11326 [DTC]    
1 62010U 24213C   26186.28199272  .00062244  00000+0  51559-3 0  9999
2 62010  53.1574 181.6268 0001042  47.9735 312.1371 15.69671540 93385
STARLINK-11330 [DTC]    
1 62011U 24213D   26186.42406657  .00196615  00000+0  15911-2 0  9995
2 62011  53.1569 181.0994 0001315  65.6304 294.4851 15.69686248 93401
STARLINK-11363 [DTC]    
1 62012U 24213E   26186.46318487  .00156444  00000+0  12713-2 0  9996
2 62012  53.1576 180.6245 0000958  79.5333 280.5793 15.69723021 93415
STARLINK-11377 [DTC]    
1 62013U 24213F   26186.26727630  .00117060  00000+0  95829-3 0  9990
2 62013  53.1569 181.5367 0001213  56.8584 303.2550 15.69690044 93382
STARLINK-11385 [DTC]    
1 62014U 24213G   26186.35547770  .00124445  00000+0  10182-2 0  9999
2 62014  53.1567 181.3813 0001221  80.3565 279.7591 15.69675064 93393
STARLINK-11396 [DTC]    
1 62015U 24213H   26186.25745843  .00039724  00000+0  33138-3 0  9992
2 62015  53.1573 181.4635 0000739 119.6862 240.4230 15.69694407 93389
STARLINK-11393 [DTC]    
1 62016U 24213J   26186.25254994  .00058772  00000+0  48642-3 0  9995
2 62016  53.1581 181.4338 0001104  82.2779 277.8364 15.69715660 93385
STARLINK-11343 [DTC]    
1 62017U 24213K   26186.41424292  .00138882  00000+0  11338-2 0  9996
2 62017  53.1566 181.0342 0001127 128.7106 231.4013 15.69673015 93402
STARLINK-11411 [DTC]    
1 62018U 24213L   26186.40442870  .00126687  00000+0  10355-2 0  9996
2 62018  53.1568 180.9708 0001536 154.6623 205.4471 15.69689987 93409
STARLINK-11404 [DTC]    
1 62019U 24213M   26186.24283975  .00247095  00000+0  19865-2 0  9990
2 62019  53.1573 182.1030 0001048  93.3841 266.7297 15.69682546 93373
STARLINK-11378 [DTC]    
1 62020U 24213N   26186.37499423  .00131666  00000+0  10762-2 0  9996
2 62020  53.1571 180.7724 0001348  93.6147 266.5025 15.69671957 93407
STARLINK-32520          
1 62021U 24213P   26186.47364510  .00028895  00000+0  98394-3 0  9993
2 62021  53.1604 341.3421 0001334 105.5893 254.5255 15.30198774 91184
STARLINK-32539          
1 62022U 24213Q   26186.42040502  .00015150  00000+0  52251-3 0  9993
2 62022  53.1593 328.7590 0000502 115.3608 244.7445 15.30204793 91357
STARLINK-32334          
1 62023U 24213R   26186.54834416  .00009421  00000+0  33000-3 0  9997
2 62023  53.1622 340.3872 0000945 302.5269  57.5640 15.30179436 91204
STARLINK-32504          
1 62024U 24213S   26186.43460160  .00045077  00000+0  15238-2 0  9996
2 62024  53.1611 341.1074 0000605 101.9498 258.1571 15.30221813 91180
STARLINK-32493          
1 62025U 24213T   26186.44799224  .00038117  00000+0  11345-2 0  9996
2 62025  53.1597 339.7721 0000611  76.9482 283.1589 15.34373659 91207
STARLINK-32561          
1 62026U 24213U   26186.44092704  .00033452  00000+0  11362-2 0  9992
2 62026  53.1608 341.1421 0000236 293.8700  66.2276 15.30208985 91186
STARLINK-32512          
1 62027U 24213V   26185.83725977  .00035153  00000+0  11923-2 0  9993
2 62027  53.1603 343.7716 0001311  71.6833 288.4310 15.30230724 91094
GSAT-N2 (GSAT-20)       
1 62028U 24214A   26186.51879440 -.00000006  00000+0  00000+0 0  9997
2 62028   0.0755  97.0429 0001986   0.1108  81.0916  1.00272963  6081
STARLINK-32637          
1 62032U 24216A   26186.40782375  .00024754  00000+0  90558-3 0  9998
2 62032  42.9992 311.1212 0002321 260.4434  99.6156 15.27595701 91886
STARLINK-32582          
1 62033U 24216B   26186.37874029  .00025113  00000+0  91855-3 0  9994
2 62033  42.9999 318.6921 0003951 285.7592  74.2824 15.27591020 91799
